0 IRIDIUM 108
1 41924U 17003H   25338.93896278  .00000021  00000-0  58315-6 0  9995
2 41924  86.3973 137.9806 0002063  91.5230 268.6202 14.34217817467262

0 IRIDIUM 169
1 43926U 19002E   25339.19164549  .00000718  00000-0  22825-3 0  9995
2 43926  86.4216 106.3156 0001424 128.4096 231.7231 14.38610957362336

0 IRIDIUM 115
1 42806U 17039D   25339.26954324  .00000304  00000-0  84276-4 0  9995
2 42806  86.4513  43.1277 0002160 112.4902 247.6528 14.43276457446293

0 IRIDIUM 161
1 43478U 18047C   25339.25062628  .00000305  00000-0  84585-4 0  9991
2 43478  86.4510 169.5076 0001991  81.9369 278.2058 14.43276820397167

0 IRIDIUM 162
1 43482U 18047G   25339.24433413  .00000228  00000-0  61790-4 0  9996
2 43482  86.4509 169.4037 0001651  90.5995 269.5395 14.43282630397152

0 IRIDIUM 124
1 42810U 17039H   25339.13405310  .00000742  00000-0  21463-3 0  9996
2 42810  86.4500  11.4878 0002181  99.2778 260.8670 14.43289180447120

0 IRIDIUM 181
1 56726U 23068S   25338.98416732  .00000431  00000-0  12211-3 0  9994
2 56726  86.4507 137.9646 0002639  89.3745 270.7758 14.43314513134429

0 IRIDIUM 175
1 43928U 19002G   25339.17441023  .00001712  00000-0  26762-3 0  9999
2 43928  86.1508  17.5089 0003040 100.8432 259.3127 14.72239800370691

